{
    "links": {
        "self": "http://www.neowsapp.com/rest/v1/neo/3836884?api_key=iIulBulltgU6a56xZRHN4H3l9WmuAYTsLGpBGhQ2"
    },
    "id": "3836884",
    "neo_reference_id": "3836884",
    "name": "(2018 XW3)",
    "designation": "2018 XW3",
    "nasa_jpl_url": "http://ssd.jpl.nasa.gov/sbdb.cgi?sstr=3836884",
    "absolute_magnitude_h": 26.4,
    "estimated_diameter": {
        "kilometers": {
            "estimated_diameter_min": 0.0139493823,
            "estimated_diameter_max": 0.0311917671
        },
        "meters": {
            "estimated_diameter_min": 13.9493822934,
            "estimated_diameter_max": 31.1917670523
        },
        "miles": {
            "estimated_diameter_min": 0.0086677416,
            "estimated_diameter_max": 0.0193816595
        },
        "feet": {
            "estimated_diameter_min": 45.7656914036,
            "estimated_diameter_max": 102.3351970157
        }
    },
    "is_potentially_hazardous_asteroid": false,
    "close_approach_data": [
        {
            "close_approach_date": "1961-12-21",
            "close_approach_date_full": "1961-Dec-21 21:29",
            "epoch_date_close_approach": -253333860000,
            "relative_velocity": {
                "kilometers_per_second": "19.8291042302",
                "kilometers_per_hour": "71384.7752285548",
                "miles_per_hour": "44355.7232524317"
            },
            "miss_distance": {
                "astronomical": "0.2486332642",
                "lunar": "96.7183397738",
                "kilometers": "37195006.735467254",
                "miles": "23111905.4721219452"
            },
            "orbiting_body": "Earth"
        },
        {
            "close_approach_date": "2013-06-25",
            "close_approach_date_full": "2013-Jun-25 15:51",
            "epoch_date_close_approach": 1372175460000,
            "relative_velocity": {
                "kilometers_per_second": "21.3865844599",
                "kilometers_per_hour": "76991.7040557062",
                "miles_per_hour": "47839.6507783915"
            },
            "miss_distance": {
                "astronomical": "0.3110446997",
                "lunar": "120.9963881833",
                "kilometers": "46531624.549909639",
                "miles": "28913410.7626414582"
            },
            "orbiting_body": "Earth"
        },
        {
            "close_approach_date": "2018-12-09",
            "close_approach_date_full": "2018-Dec-09 01:38",
            "epoch_date_close_approach": 1544319480000,
            "relative_velocity": {
                "kilometers_per_second": "12.7741993213",
                "kilometers_per_hour": "45987.1175565882",
                "miles_per_hour": "28574.6064617589"
            },
            "miss_distance": {
                "astronomical": "0.0140933759",
                "lunar": "5.4823232251",
                "kilometers": "2108339.015749333",
                "miles": "1310061.1160454754"
            },
            "orbiting_body": "Earth"
        },
        {
            "close_approach_date": "2077-12-12",
            "close_approach_date_full": "2077-Dec-12 01:21",
            "epoch_date_close_approach": 3406497660000,
            "relative_velocity": {
                "kilometers_per_second": "13.9166954561",
                "kilometers_per_hour": "50100.1036421306",
                "miles_per_hour": "31130.2560658561"
            },
            "miss_distance": {
                "astronomical": "0.0527694833",
                "lunar": "20.5273290037",
                "kilometers": "7894202.302680571",
                "miles": "4905229.8523550398"
            },
            "orbiting_body": "Earth"
        }
    ],
    "orbital_data": {
        "orbit_id": "5",
        "orbit_determination_date": "2019-04-18 07:40:25",
        "first_observation_date": "2018-12-13",
        "last_observation_date": "2019-01-03",
        "data_arc_in_days": 21,
        "observations_used": 27,
        "orbit_uncertainty": "7",
        "minimum_orbit_intersection": ".000284377",
        "jupiter_tisserand_invariant": "4.541",
        "epoch_osculation": "2459000.5",
        "eccentricity": ".4551309317771953",
        "semi_major_axis": "1.443914995999377",
        "inclination": "2.546823401272106",
        "ascending_node_longitude": "255.7418816818367",
        "orbital_period": "633.7396317367189",
        "perihelion_distance": ".7867446184631151",
        "perihelion_argument": "110.6040845183957",
        "aphelion_distance": "2.101085373535638",
        "perihelion_time": "2459047.245250857888",
        "mean_anomaly": "333.4460502924157",
        "mean_motion": ".5680566307861248",
        "equinox": "J2000",
        "orbit_class": {
            "orbit_class_type": "APO",
            "orbit_class_description": "Near-Earth asteroid orbits which cross the Earth’s orbit similar to that of 1862 Apollo",
            "orbit_class_range": "a (semi-major axis) > 1.0 AU; q (perihelion) < 1.017 AU"
        }
    },
    "is_sentry_object": false
}